{"type": "FeatureCollection", "features": [ {"type": "Feature", "properties": {"norad_id": 34001, "name": "COSMOS 2251 DEB", "group": "cosmos-2251-debris", "lat": -17.099273616816955, "lon": -72.65144347486932, "alt_km": 760.8234566433066, "timestamp": "2025-12-06T20:37:56.468754+00:00", "meta": {"OBJECT_NAME": "COSMOS 2251 DEB", "OBJECT_ID": "1993-036GL", "EPOCH": "2025-12-06T08:03:28.764576", "MEAN_MOTION": 14.37085659, "ECCENTRICITY": 0.00196601, "INCLINATION": 74.0383, "RA_OF_ASC_NODE": 293.3627, "ARG_OF_PERICENTER": 15.8707, "MEAN_ANOMALY": 137.0798, "EPHEMERIS_TYPE": 0, "CLASSIFICATION_TYPE": "U", "NORAD_CAT_ID": 34001, "ELEMENT_SET_NO": 999, "REV_AT_EPOCH": 88054, "BSTAR": 0.00041303145, "MEAN_MOTION_DOT": 1.203e-05, "MEAN_MOTION_DDOT": 0}, "tle": {"line1": "1 34001U 93036GL  25340.33574959  .00001203  00000+0  41303-3 0  9997", "line2": "2 34001  74.0383 293.3627 0019660  15.8707 137.0798 14.37085659880545"}}, "geometry": {"type": "Point", "coordinates": [-72.65144347486932, -17.099273616816955]}}, {"type": "Feature", "properties": {"norad_id": 34003, "name": "COSMOS 2251 DEB", "group": "cosmos-2251-debris", "lat": -73.94220939835293, "lon": -162.36371630964533, "alt_km": 1108.877012430783, "timestamp": "2025-12-06T20:37:56.468765+00:00", "meta": {"OBJECT_NAME": "COSMOS 2251 DEB", "OBJECT_ID": "1993-036GN", "EPOCH": "2025-12-06T07:12:02.823552", "MEAN_MOTION": 13.84094622, "ECCENTRICITY": 0.02738287, "INCLINATION": 74.0786, "RA_OF_ASC_NODE": 295.9819, "ARG_OF_PERICENTER": 49.5044, "MEAN_ANOMALY": 312.9595, "EPHEMERIS_TYPE": 0, "CLASSIFICATION_TYPE": "U", "NORAD_CAT_ID": 34003, "ELEMENT_SET_NO": 999, "REV_AT_EPOCH": 84336, "BSTAR": 0.0035256997, "MEAN_MOTION_DOT": 5.228e-05, "MEAN_MOTION_DDOT": 0}, "tle": {"line1": "1 34003U 93036GN  25340.30003268  .00005228  00000+0  35257-2 0  9997", "line2": "2 34003  74.0786 295.9819 0273828  49.5044 312.9595 13.84094622843360"}}, "geometry": {"type": "Point", "coordinates": [-162.36371630964533, -73.94220939835293]}}, {"type": "Feature", "properties": {"norad_id": 34004, "name": "COSMOS 2251 DEB", "group": "cosmos-2251-debris", "lat": -21.875562530401304, "lon": -42.46493615629871, "alt_km": 710.5255584512433, "timestamp": "2025-12-06T20:37:56.468775+00:00", "meta": {"OBJECT_NAME": "COSMOS 2251 DEB", "OBJECT_ID": "1993-036GP", "EPOCH": "2025-12-06T09:08:13.509024", "MEAN_MOTION": 14.48910835, "ECCENTRICITY": 0.00332553, "INCLINATION": 74.0358, "RA_OF_ASC_NODE": 325.0323, "ARG_OF_PERICENTER": 338.1291, "MEAN_ANOMALY": 21.8447, "EPHEMERIS_TYPE": 0, "CLASSIFICATION_TYPE": "U", "NORAD_CAT_ID": 34004, "ELEMENT_SET_NO": 999, "REV_AT_EPOCH": 87938, "BSTAR": 0.0024975664, "MEAN_MOTION_DOT": 9.506e-05, "MEAN_MOTION_DDOT": 0}, "tle": {"line1": "1 34004U 93036GP  25340.38071191  .00009506  00000+0  24976-2 0  9995", "line2": "2 34004  74.0358 325.0323 0033255 338.1291  21.8447 14.48910835879387"}}, "geometry": {"type": "Point", "coordinates": [-42.46493615629871, -21.875562530401304]}}, {"type": "Feature", "properties": {"norad_id": 34005, "name": "COSMOS 2251 DEB", "group": "cosmos-2251-debris", "lat": 67.81046333646091, "lon": -90.9511747538305, "alt_km": 750.7019950341191, "timestamp": "2025-12-06T20:37:56.468786+00:00", "meta": {"OBJECT_NAME": "COSMOS 2251 DEB", "OBJECT_ID": "1993-036GQ", "EPOCH": "2025-12-06T11:06:26.763264", "MEAN_MOTION": 14.402976, "ECCENTRICITY": 0.00206035, "INCLINATION": 74.0451, "RA_OF_ASC_NODE": 225.2438, "ARG_OF_PERICENTER": 344.5777, "MEAN_ANOMALY": 192.6212, "EPHEMERIS_TYPE": 0, "CLASSIFICATION_TYPE": "U", "NORAD_CAT_ID": 34005, "ELEMENT_SET_NO": 999, "REV_AT_EPOCH": 88288, "BSTAR": 0.00022332975, "MEAN_MOTION_DOT": 6.83e-06, "MEAN_MOTION_DDOT": 0}, "tle": {"line1": "1 34005U 93036GQ  25340.46280976  .00000683  00000+0  22333-3 0  9991", "line2": "2 34005  74.0451 225.2438 0020603 344.5777 192.6212 14.40297600882889"}}, "geometry": {"type": "Point", "coordinates": [-90.9511747538305, 67.81046333646091]}}, {"type": "Feature", "properties": {"norad_id": 34006, "name": "COSMOS 2251 DEB", "group": "cosmos-2251-debris", "lat": -73.35197713213971, "lon": 82.13521076572256, "alt_km": 600.2673675377118, "timestamp": "2025-12-06T20:37:56.468797+00:00", "meta": {"OBJECT_NAME": "COSMOS 2251 DEB", "OBJECT_ID": "1993-036GR", "EPOCH": "2025-12-05T23:05:10.757184", "MEAN_MOTION": 14.94011993, "ECCENTRICITY": 0.00120838, "INCLINATION": 74.0531, "RA_OF_ASC_NODE": 156.9256, "ARG_OF_PERICENTER": 111.4056, "MEAN_ANOMALY": 16.7828, "EPHEMERIS_TYPE": 0, "CLASSIFICATION_TYPE": "U", "NORAD_CAT_ID": 34006, "ELEMENT_SET_NO": 999, "REV_AT_EPOCH": 88567, "BSTAR": 0.0045789293, "MEAN_MOTION_DOT": 0.0004922, "MEAN_MOTION_DDOT": 0}, "tle": {"line1": "1 34006U 93036GR  25339.96193006  .00049220  00000+0  45789-2 0  9991", "line2": "2 34006  74.0531 156.9256 0012083 111.4056  16.7828 14.94011993885678"}}, "geometry": {"type": "Point", "coordinates": [82.13521076572256, -73.35197713213971]}}, {"type": "Feature", "properties": {"norad_id": 34007, "name": "COSMOS 2251 DEB", "group": "cosmos-2251-debris", "lat": 56.623907839995155, "lon": 152.43040142352112, "alt_km": 641.8433805827444, "timestamp": "2025-12-06T20:37:56.468807+00:00", "meta": {"OBJECT_NAME": "COSMOS 2251 DEB", "OBJECT_ID": "1993-036GS", "EPOCH": "2025-12-06T11:53:35.088864", "MEAN_MOTION": 14.64721791, "ECCENTRICITY": 0.00445765, "INCLINATION": 74.0194, "RA_OF_ASC_NODE": 358.9162, "ARG_OF_PERICENTER": 135.8494, "MEAN_ANOMALY": 224.6247, "EPHEMERIS_TYPE": 0, "CLASSIFICATION_TYPE": "U", "NORAD_CAT_ID": 34007, "ELEMENT_SET_NO": 999, "REV_AT_EPOCH": 88988, "BSTAR": 0.0012293927, "MEAN_MOTION_DOT": 6.618e-05, "MEAN_MOTION_DDOT": 0}, "tle": {"line1": "1 34007U 93036GS  25340.49554501  .00006618  00000+0  12294-2 0  9992", "line2": "2 34007  74.0194 358.9162 0044576 135.8494 224.6247 14.64721791889885"}}, "geometry": {"type": "Point", "coordinates": [152.43040142352112, 56.623907839995155]}}, {"type": "Feature", "properties": {"norad_id": 34008, "name": "COSMOS 2251 DEB", "group": "cosmos-2251-debris", "lat": 45.0807892522915, "lon": 144.5815736906117, "alt_km": 792.6350352057952, "timestamp": "2025-12-06T20:37:56.468818+00:00", "meta": {"OBJECT_NAME": "COSMOS 2251 DEB", "OBJECT_ID": "1993-036GT", "EPOCH": "2025-12-06T10:40:22.444608", "MEAN_MOTION": 14.33139609, "ECCENTRICITY": 0.00240847, "INCLINATION": 74.0342, "RA_OF_ASC_NODE": 342.0236, "ARG_OF_PERICENTER": 338.4402, "MEAN_ANOMALY": 173.7978, "EPHEMERIS_TYPE": 0, "CLASSIFICATION_TYPE": "U", "NORAD_CAT_ID": 34008, "ELEMENT_SET_NO": 999, "REV_AT_EPOCH": 87874, "BSTAR": 0.00023358649, "MEAN_MOTION_DOT": 6.17e-06, "MEAN_MOTION_DDOT": 0}, "tle": {"line1": "1 34008U 93036GT  25340.44470422  .00000617  00000+0  23359-3 0  9995", "line2": "2 34008  74.0342 342.0236 0024084 338.4402 173.7978 14.33139609878744"}}, "geometry": {"type": "Point", "coordinates": [144.5815736906117, 45.0807892522915]}}, {"type": "Feature", "properties": {"norad_id": 34009, "name": "COSMOS 2251 DEB", "group": "cosmos-2251-debris", "lat": 12.366292564584072, "lon": 164.08510934743006, "alt_km": 787.5824449167494, "timestamp": "2025-12-06T20:37:56.468829+00:00", "meta": {"OBJECT_NAME": "COSMOS 2251 DEB", "OBJECT_ID": "1993-036GU", "EPOCH": "2025-12-06T12:14:25.001376", "MEAN_MOTION": 14.33214937, "ECCENTRICITY": 0.00263275, "INCLINATION": 74.0371, "RA_OF_ASC_NODE": 348.3218, "ARG_OF_PERICENTER": 59.9525, "MEAN_ANOMALY": 103.3556, "EPHEMERIS_TYPE": 0, "CLASSIFICATION_TYPE": "U", "NORAD_CAT_ID": 34009, "ELEMENT_SET_NO": 999, "REV_AT_EPOCH": 87856, "BSTAR": 0.00025619106, "MEAN_MOTION_DOT": 6.81e-06, "MEAN_MOTION_DDOT": 0}, "tle": {"line1": "1 34009U 93036GU  25340.51001159  .00000681  00000+0  25619-3 0  9993", "line2": "2 34009  74.0371 348.3218 0026327  59.9525 103.3556 14.33214937878568"}}, "geometry": {"type": "Point", "coordinates": [164.08510934743006, 12.366292564584072]}}, {"type": "Feature", "properties": {"norad_id": 34010, "name": "COSMOS 2251 DEB", "group": "cosmos-2251-debris", "lat": 46.0051211616483, "lon": -47.08780392957885, "alt_km": 507.0094811828885, "timestamp": "2025-12-06T20:37:56.468839+00:00", "meta": {"OBJECT_NAME": "COSMOS 2251 DEB", "OBJECT_ID": "1993-036GV", "EPOCH": "2025-12-06T07:45:30.700800", "MEAN_MOTION": 15.17023433, "ECCENTRICITY": 0.0004467, "INCLINATION": 73.9999, "RA_OF_ASC_NODE": 296.7443, "ARG_OF_PERICENTER": 61.0093, "MEAN_ANOMALY": 299.155, "EPHEMERIS_TYPE": 0, "CLASSIFICATION_TYPE": "U", "NORAD_CAT_ID": 34010, "ELEMENT_SET_NO": 999, "REV_AT_EPOCH": 89188, "BSTAR": 0.0074892494, "MEAN_MOTION_DOT": 0.00151277, "MEAN_MOTION_DDOT": 0}, "tle": {"line1": "1 34010U 93036GV  25340.32327200  .00151277  00000+0  74892-2 0  9996", "line2": "2 34010  73.9999 296.7443 0004467  61.0093 299.1550 15.17023433891885"}}, "geometry": {"type": "Point", "coordinates": [-47.08780392957885, 46.0051211616483]}}, {"type": "Feature", "properties": {"norad_id": 34011, "name": "COSMOS 2251 DEB", "group": "cosmos-2251-debris", "lat": -8.5325705789051, "lon": -21.403900370442546, "alt_km": 750.0630207904242, "timestamp": "2025-12-06T20:37:56.468850+00:00", "meta": {"OBJECT_NAME": "COSMOS 2251 DEB", "OBJECT_ID": "1993-036GW", "EPOCH": "2025-12-06T00:41:21.098688", "MEAN_MOTION": 14.41719901, "ECCENTRICITY": 0.00352462, "INCLINATION": 74.0147, "RA_OF_ASC_NODE": 342.6021, "ARG_OF_PERICENTER": 68.4372, "MEAN_ANOMALY": 292.0534, "EPHEMERIS_TYPE": 0, "CLASSIFICATION_TYPE": "U", "NORAD_CAT_ID": 34011, "ELEMENT_SET_NO": 999, "REV_AT_EPOCH": 87819, "BSTAR": 0.0013246525, "MEAN_MOTION_DOT": 4.329e-05, "MEAN_MOTION_DDOT": 0}, "tle": {"line1": "1 34011U 93036GW  25340.02871642  .00004329  00000+0  13247-2 0  9990", "line2": "2 34011  74.0147 342.6021 0035246  68.4372 292.0534 14.41719901878197"}}, "geometry": {"type": "Point", "coordinates": [-21.403900370442546, -8.5325705789051]}}]}